{
    "links": {
        "self": "http://www.neowsapp.com/rest/v1/neo/3789629?api_key=iIulBulltgU6a56xZRHN4H3l9WmuAYTsLGpBGhQ2"
    },
    "id": "3789629",
    "neo_reference_id": "3789629",
    "name": "(2017 WO13)",
    "designation": "2017 WO13",
    "nasa_jpl_url": "http://ssd.jpl.nasa.gov/sbdb.cgi?sstr=3789629",
    "absolute_magnitude_h": 26.8,
    "estimated_diameter": {
        "kilometers": {
            "estimated_diameter_min": 0.0116025908,
            "estimated_diameter_max": 0.0259441818
        },
        "meters": {
            "estimated_diameter_min": 11.6025908209,
            "estimated_diameter_max": 25.9441817907
        },
        "miles": {
            "estimated_diameter_min": 0.0072095135,
            "estimated_diameter_max": 0.0161209622
        },
        "feet": {
            "estimated_diameter_min": 38.066244069,
            "estimated_diameter_max": 85.1187093863
        }
    },
    "is_potentially_hazardous_asteroid": false,
    "close_approach_data": [
        {
            "close_approach_date": "2017-11-17",
            "close_approach_date_full": "2017-Nov-17 18:25",
            "epoch_date_close_approach": 1510943100000,
            "relative_velocity": {
                "kilometers_per_second": "12.135560247",
                "kilometers_per_hour": "43688.0168892695",
                "miles_per_hour": "27146.0347165575"
            },
            "miss_distance": {
                "astronomical": "0.0165349446",
                "lunar": "6.4320934494",
                "kilometers": "2473592.492728002",
                "miles": "1537019.1024583476"
            },
            "orbiting_body": "Earth"
        },
        {
            "close_approach_date": "2094-12-20",
            "close_approach_date_full": "2094-Dec-20 03:51",
            "epoch_date_close_approach": 3943655460000,
            "relative_velocity": {
                "kilometers_per_second": "26.2083297354",
                "kilometers_per_hour": "94349.9870476132",
                "miles_per_hour": "58625.4127852239"
            },
            "miss_distance": {
                "astronomical": "0.4862844056",
                "lunar": "189.1646337784",
                "kilometers": "72747111.291976072",
                "miles": "45202958.8677789136"
            },
            "orbiting_body": "Earth"
        }
    ],
    "orbital_data": {
        "orbit_id": "2",
        "orbit_determination_date": "2017-12-29 06:22:22",
        "first_observation_date": "2017-11-20",
        "last_observation_date": "2017-11-24",
        "data_arc_in_days": 4,
        "observations_used": 36,
        "orbit_uncertainty": "8",
        "minimum_orbit_intersection": ".00835107",
        "jupiter_tisserand_invariant": "3.376",
        "epoch_osculation": "2458079.5",
        "eccentricity": ".5971577551414768",
        "semi_major_axis": "2.237653070946678",
        "inclination": "2.636317088139303",
        "ascending_node_longitude": "222.7990742478269",
        "orbital_period": "1222.608912885253",
        "perihelion_distance": ".9014211863147279",
        "perihelion_argument": "150.5183563802509",
        "aphelion_distance": "3.573884955578628",
        "perihelion_time": "2458044.915081332155",
        "mean_anomaly": "10.18360866603034",
        "mean_motion": ".2944522947656504",
        "equinox": "J2000",
        "orbit_class": {
            "orbit_class_type": "APO",
            "orbit_class_description": "Near-Earth asteroid orbits which cross the Earth’s orbit similar to that of 1862 Apollo",
            "orbit_class_range": "a (semi-major axis) > 1.0 AU; q (perihelion) < 1.017 AU"
        }
    },
    "is_sentry_object": false
}